C/2016 N4 (MASTER),e,72.6523,353.9901,55.9618,7879,0.0000014,0.99959434,0.0000,09/17.7460/2017,2000,g  8.5,4.0
# From MPEC 2021-P47
C/2016 N6 (PANSTARRS),e,105.8540,298.9342,162.6009,1012,0.0000306,0.99737116,0.0000,07/17.5814/2018,2000,g  7.0,4.0
# From MPC102099
P/2016 P1 (PANSTARRS),e,24.4355,319.5569,270.3669,3.197971,0.1723424,0.28939923,81.1632,09/25.0/2022,2000,g 15.0,4.0
# From MPEC 2022-M21
C/2016 Q2 (PANSTARRS),h,05/12.3007/2021,109.3851,322.3049,84.5535,1.002602,7.081975,2000,6.0,4.0
# From MPC102955
C/2016 Q4 (Kowalski),e,7.2480,271.2965,99.6350,17.01062,0.0140483,0.58293330,23.8533,09/25.0/2022,2000,g  7.0,4.0
# From MPEC 2021-N06
C/2016 R2 (PANSTARRS),e,58.3103,80.5214,33.0990,475.9678,0.0000949,0.99454300,0.0000,05/09.1042/2018,2000,g  7.0,4.0
# From MPEC 2022-K19
P/2016 R4 (Gibbs),e,10.8779,168.2614,174.1173,5.332354,0.0800434,0.47630372,180.4178,09/25.0/2022,2000,g 12.5,4.0
# From MPC105543
P/2016 S1 (PANSTARRS),e,94.7241,227.6376,273.2635,8.276580,0.0413931,0.71022852,83.5545,09/25.0/2022,2000,g 12.0,4.0
# From MPC106345
P/2016 WM48 (Lemmon),e,117.5637,59.9282,36.1312,8.168214,0.0422195,0.78349701,86.1161,09/25.0/2022,2000,g 15.0,4.0
# From MPEC 2021-P47
C/2016 X1 (Lemmon),e,26.4569,256.3527,224.4747,1313,0.0000207,0.99424320,0.0000,04/27.8099/2019,2000,g  6.0,4.0
# From MPC114598
C/2017 AB5 (PANSTARRS),e,32.4628,42.5998,78.2834,2509,0.0000078,0.99633181,0.0000,02/14.4559/2018,2000,g  5.5,4.0
# From MPEC 2022-OB6
C/2017 B3 (LINEAR),h,02/01.7081/2019,54.1585,2.1748,284.8280,1.000494,3.928336,2000,6.0,4.0
# From MPC103847
P/2017 B4 (PANSTARRS),e,20.0584,121.4578,11.0197,4.410520,0.1064068,0.36495152,359.9130,01/05.0/2017,2000,g 14.5,4.0
# From MPEC 2022-OB6
P/2017 D1 (Fuls),e,20.7649,82.1866,7.9557,4.828235,0.0929012,0.43679460,212.2913,09/25.0/2022,2000,g 14.0,4.0
# From MPEC 2022-OB6
P/2017 D4 (PANSTARRS),e,10.5456,264.9415,212.1512,7.550147,0.0475085,0.62878356,105.0441,09/25.0/2022,2000,g 13.0,4.0
# From MPC111769
C/2017 F1 (Lemmon),h,11/28.1213/2017,146.4657,158.7871,64.7202,1.001507,4.499567,2000,10.5,4.0
# From MPC114598
C/2017 F2 (PANSTARRS),h,11/25.6471/2017,42.5568,38.7060,134.8955,1.001838,6.924322,2000,7.5,4.0
# From MPC104794
P/2017 G1 (PANSTARRS),e,4.7823,249.6659,224.3777,7.276797,0.0502104,0.65352627,117.5886,09/25.0/2022,2000,g 13.5,4.0
# From MPC108595
P/2017 G2 (PANSTARRS),e,47.9580,79.8296,105.4357,8.053128,0.0431278,0.64753640,83.3922,09/25.0/2022,2000,g 13.0,4.0
# From MPC115882
C/2017 K1 (PANSTARRS),h,03/17.8920/2018,154.0217,225.7278,4.4233,1.003432,7.284099,2000,7.0,4.0
# From MPEC 2022-RD9
C/2017 K2 (PANSTARRS),h,12/19.6837/2022,87.5626,88.2351,236.1984,1.000806,1.796896,2000,1.5,4.0
# From MPEC 2021-N06
P/2017 K3 (Gasparovic),e,4.2732,354.2918,253.4332,5.584704,0.0746799,0.57926597,145.2793,09/25.0/2022,2000,g 14.5,4.0
# From MPC114598
C/2017 K4 (ATLAS),e,16.6638,298.9126,15.3451,28.69540,0.0064119,0.90726826,11.0335,09/25.0/2022,2000,g 10.0,4.0
# From MPEC 2021-P47
C/2017 K5 (PANSTARRS),h,03/27.3866/2020,82.2482,102.3829,172.0675,1.005291,7.683903,2000,5.0,4.0
# From MPC114599
C/2017 K6 (Jacques),e,57.2212,84.9026,303.8091,1230,0.0000228,0.99837780,0.0000,01/04.0271/2018,2000,g 11.0,4.0
# From MPEC 2022-OB6
C/2017 M4 (ATLAS),h,01/17.9773/2019,105.6418,65.9553,167.6135,1.001297,3.252490,2000,6.0,4.0
# From MPC118841
C/2017 M5 (TOTAS),h,06/04.3124/2018,15.8632,216.2890,92.8605,1.005191,6.004044,2000,6.5,4.0
# From MPEC 2022-OB6
C/2017 O1 (ASASSN),e,39.9886,25.7146,20.8442,379.7814,0.0001332,0.99607477,0.0000,10/15.9602/2017,2000,g 11.0,4.0
# From MPC114599
P/2017 P1 (PANSTARRS),e,7.6899,221.3687,122.6739,7.911511,0.0442909,0.31093736,68.8929,09/25.0/2022,2000,g 10.0,4.0
# From MPC114599
C/2017 P2 (PANSTARRS),e,50.0486,165.4598,132.5149,2556,0.0000076,0.99903123,0.0000,12/05.8928/2017,2000,g 10.0,4.0
# From MPC114599
C/2017 S3 (PANSTARRS),h,08/16.6066/2018,99.2069,171.3106,255.8247,1.000090,0.205448,2000,12.9,4.0
# From MPC109591
C/2017 S6 (Catalina),h,02/26.1689/2018,152.8649,131.1116,135.0067,1.000933,1.551370,2000,12.5,4.0
# From MPEC 2022-OB6
P/2017 S8 (PANSTARRS),e,29.8486,191.5192,254.8494,2.777746,0.2128949,0.39074341,2.0884,09/25.0/2022,2000,g 16.0,4.0
# From MPC107050
P/2017 S9 (PANSTARRS),e,14.1422,146.2246,237.5879,3.156104,0.1757831,0.30569342,332.7061,09/25.0/2022,2000,g 17.0,4.0
# From MPC114600
C/2017 T1 (Heinze),e,96.9072,102.5419,97.0299,10734,0.0000009,0.99994541,0.0000,02/20.6381/2018,2000,g 14.5,4.0
# From MPEC 2021-Y10
C/2017 T2 (PANSTARRS),e,57.2539,64.4017,92.9454,1666,0.0000145,0.99903083,0.0000,05/04.7963/2020,2000,g  5.0,4.0
# From MPC114600
C/2017 T3 (ATLAS),e,88.2290,230.2073,246.8079,1214,0.0000233,0.99932116,0.0000,07/19.0728/2018,2000,g 10.0,4.0
# From MPC115882
P/2017 TW13 (Lemmon),e,44.8496,322.2716,119.9131,7.136228,0.0517012,0.71011849,80.4686,09/25.0/2022,2000,g 15.0,2.0
# From MPEC 2022-K19
P/2017 U3 (PANSTARRS),e,15.9186,165.1098,296.3381,4.925663,0.0901586,0.09946540,113.7507,09/25.0/2022,2000,g 11.0,4.0
# From MPEC 2021-P47
C/2017 U4 (PANSTARRS),e,158.2038,245.9156,158.9750,63527,0.0000001,0.99987844,0.0000,09/21.8889/2018,2000,g  7.0,4.0
# From MPC114600
C/2017 U5 (PANSTARRS),e,18.9781,163.0858,261.9973,16.90525,0.0141799,0.74473181,24.6802,09/25.0/2022,2000,g 12.0,4.0
# From MPEC 2022-PB4
C/2017 U7 (PANSTARRS),h,09/15.0270/2019,142.6076,276.2597,326.4047,1.001316,6.427443,2000,8.3,2.0
# From MPC114600
C/2017 W2 (Leonard),e,98.2078,312.8141,168.8802,13.61191,0.0196257,0.71018258,35.1243,09/25.0/2022,2000,g 11.0,4.0
# From MPC114601
P/2017 W3 (Gibbs),e,18.1673,210.2230,327.8286,7.833586,0.0449535,0.50639816,75.1152,09/25.0/2022,2000,g 10.5,4.0
# From MPEC 2021-R75
C/2017 X1 (PANSTARRS),e,31.3302,251.1494,283.1699,31.05150,0.0056961,0.84974196,8.9083,09/25.0/2022,2000,g 10.0,4.0
# From MPEC 2022-QD9
C/2017 Y2 (PANSTARRS),h,11/05.0497/2020,128.4309,66.0052,147.9329,1.001289,4.632946,2000,15.0,4.0
# From MPC111770
P/2017 Y3 (Leonard),e,27.5607,153.8494,67.5940,9.826048,0.0319989,0.86953830,54.0473,09/25.0/2022,2000,g 16.5,4.0
# From MPC114601
C/2018 A1 (PANSTARRS),e,53.6079,336.6501,96.1815,25.11506,0.0078307,0.90418162,14.0909,09/25.0/2022,2000,g 12.5,4.0
# From MPEC 2021-P47
C/2018 A3 (ATLAS),e,139.5365,194.2927,86.3519,378.5464,0.0001338,0.99134163,0.0000,01/11.2679/2019,2000,g  8.5,4.0
# From MPC114601
C/2018 A4 (PANSTARRS),e,3.1500,97.5908,355.9606,12.18401,0.0231749,0.80371651,36.8446,09/25.0/2022,2000,g 14.0,4.0
# From MPC109147
P/2018 A5 (PANSTARRS),e,23.6034,87.7962,359.4901,5.629324,0.0737938,0.52316812,134.8365,09/25.0/2022,2000,g 15.0,4.0
# From MPEC 2022-C56
C/2018 A6 (Gibbs),e,77.0565,340.3811,264.3660,15.06929,0.0168486,0.79975126,19.7311,09/25.0/2022,2000,g  9.0,4.0
# From MPEC 2022-O08
C/2018 B1 (Lemmon),e,162.4185,133.1918,68.3892,4967,0.0000028,0.99896739,0.0000,03/27.7444/2018,2000,g  9.0,4.0
# From MPC114601
P/2018 C1 (Lemmon-Read),e,5.1128,270.3429,235.6983,5.652908,0.0733324,0.53205238,122.7857,09/25.0/2022,2000,g 13.5,4.0
# From MPC114601
C/2018 C2 (Lemmon),h,05/31.5114/2018,34.4632,91.2307,134.0394,1.000094,1.960825,2000,13.0,4.0
# From MPEC 2022-M88
C/2018 DO4 (Lemmon),e,160.4439,251.4297,176.2914,25.36827,0.0077138,0.90490623,8.7542,09/25.0/2022,2000,g 11.0,4.0
# From MPC114602
C/2018 E1 (ATLAS),e,72.5081,146.8483,299.2965,53.85712,0.0024937,0.94998642,4.0423,09/25.0/2022,2000,g 10.5,4.0
# From MPEC 2022-N37
C/2018 E2 (Barros),e,97.6300,67.1574,277.4449,2884,0.0000064,0.99864109,0.0000,12/23.7365/2017,2000,g 10.5,4.0
# From MPC114602
C/2018 EN4 (NEOWISE),e,81.9267,136.1282,35.0351,17.93814,0.0129729,0.91854295,20.4390,09/25.0/2022,2000,g 15.0,4.0
# From MPC114602
C/2018 EF9 (Lemmon),e,84.6175,172.5541,72.6296,464.2991,0.0000985,0.99663797,0.0000,05/21.5013/2018,2000,g 18.0,2.0
# From MPEC 2021-R75
C/2018 F1 (Grauer),e,46.0776,177.2757,71.5969,246.1878,0.0002552,0.98782766,0.0000,12/12.3350/2018,2000,g 11.5,4.0
# From MPEC 2021-W31
C/2018 F4 (PANSTARRS),h,12/03.4791/2019,78.0846,26.5156,263.2254,1.000045,3.442862,2000,11.0,6.0
# From MPEC 2021-Y10
C/2018 F4-A,e,78.0848,26.5158,263.2222,489163,0.0000000,0.99999296,0.0000,12/03.4673/2019,2000,g 11.0,6.0
# From MPEC 2021-W31
C/2018 F4-B,h,12/03.4035/2019,78.0855,26.5154,263.2072,1.000089,3.442513,2000,11.0,6.0
# From MPC114602
P/2018 H2 (PANSTARRS),e,7.4097,68.0139,120.0257,4.383737,0.1073834,0.54198652,183.5716,09/25.0/2022,2000,g 16.6,2.0
# From MPC114602
C/2018 K1 (Weiland),e,164.1896,260.1580,325.2296,30.19437,0.0059404,0.93767097,9.6909,09/25.0/2022,2000,g 14.9,4.0
# From MPEC 2021-R75
C/2018 KJ3 (Lemmon),e,136.6824,91.6431,217.6742,960.1344,0.0000331,0.99622119,0.0000,09/09.9724/2019,2000,g 12.2,2.0
# From MPC114602
P/2018 L1 (PANSTARRS),e,10.5816,268.6203,18.0372,3.653307,0.1411480,0.48200390,199.4485,09/25.0/2022,2000,g 15.0,4.0
# From MPEC 2021-P47
C/2018 L2 (ATLAS),e,67.2804,243.0068,56.3191,259.4942,0.0002358,0.99338929,0.0000,12/02.3802/2018,2000,g 10.0,4.0
# From MPC114603
P/2018 L4 (PANSTARRS),e,26.6212,145.1655,140.6218,4.944810,0.0896354,0.65927851,135.9689,09/25.0/2022,2000,g 17.5,4.0
# From MPC119996
P/2018 L5 (Leonard),e,2.2085,219.0512,93.9481,3.628798,0.1425804,0.36436492,228.6127,09/25.0/2022,2000,g 14.5,4.0
# From MPC117070
C/2018 M1 (Catalina),e,37.2935,339.4132,14.2282,21.48034,0.0099002,0.93927212,15.2182,09/25.0/2022,2000,g 15.5,4.0
# From MPEC 2022-M21
C/2018 N1 (NEOWISE),e,159.4201,292.5149,354.7205,501.1667,0.0000878,0.99738613,0.0000,08/02.6263/2018,2000,g 15.5,4.0
# From MPEC 2022-L66
C/2018 N2 (ASASSN),h,11/11.2427/2019,77.5501,25.2079,24.4637,1.000737,3.126862,2000,6.0,4.0
# From MPC114603
C/2018 O1 (ATLAS),e,154.0091,87.7567,162.6955,28.07773,0.0066246,0.94446646,9.8355,09/25.0/2022,2000,g 17.0,4.0
# From MPEC 2022-M21
P/2018 P3 (PANSTARRS),e,8.9139,59.1592,305.9663,3.004621,0.1892429,0.41709550,273.3871,09/25.0/2022,2000,g 14.5,4.0
# From MPC114603
P/2018 P4 (PANSTARRS),e,23.1097,353.0617,8.3954,6.682546,0.0570547,0.45064910,80.7889,09/25.0/2022,2000,g 12.0,4.0
# From MPEC 2021-P47
